NORAD_CAT_ID,OBJECT_NAME,OBJECT_TYPE,EPOCH,MEAN_MOTION,ECCENTRICITY,INCLINATION,RA_OF_ASC_NODE,ARG_OF_PERICENTER,MEAN_ANOMALY,BSTAR,MEAN_MOTION_DOT,MEAN_MOTION_DDOT,TLE_LINE0,TLE_LINE1,TLE_LINE2,SEMIMAJOR_AXIS,PERIOD,APOGEE,PERIGEE,DECAYED
53902.0,STARLINK-5021,PAYLOAD,2023-10-26 22:52:03,15.0884429,0.00017,53.2158,195.8269,102.0287,258.0896,5.0568e-05,5.17e-06,0.0,0 STARLINK-5021,1 53902U 22119S   23299.95281719  .00000517  00000-0  50568-4 0  9992,2 53902  53.2158 195.8269 0001700 102.0287 258.0896 15.08844290 61841,6917.867,95.437,540.908,538.556,0.0
53902.0,STARLINK-5021,PAYLOAD,2023-10-27 03:38:12,15.0885415,0.0001505,53.2155,194.9379,90.4661,269.6504,0.00030106,4.508e-05,0.0,0 STARLINK-5021,1 53902U 22119S   23300.15153463  .00004508  00000-0  30106-3 0  9990,2 53902  53.2155 194.9379 0001505  90.4661 269.6504 15.08854150 61456,6917.837,95.437,540.743,538.661,0.0
53902.0,STARLINK-5021,PAYLOAD,2023-10-27 22:42:51,15.08836036,0.0001776,53.2157,191.3668,107.9172,252.2014,2.1259e-05,5e-07,0.0,0 STARLINK-5021,1 53902U 22119S   23300.94642379  .00000050  00000-0  21259-4 0  9994,2 53902  53.2157 191.3668 0001776 107.9172 252.2014 15.08836036 61997,6917.893,95.438,540.986,538.529,0.0
53902.0,STARLINK-5021,PAYLOAD,2023-10-28 00:18:14,15.08833304,0.0001802,53.2159,191.0694,74.4962,285.6229,5.9182e-06,-1.94e-06,0.0,0 STARLINK-5021,1 53902U 22119S   23301.01266717 -.00000194  00000-0  59182-5 0  9998,2 53902  53.2159 191.0694 0001802  74.4962 285.6229 15.08833304 61588,6917.901,95.438,541.012,538.519,0.0
53902.0,STARLINK-5021,PAYLOAD,2023-10-28 09:50:33,15.08832692,0.0001563,53.2154,189.2852,95.7489,264.3681,2.6263e-05,1.3e-06,0.0,0 STARLINK-5021,1 53902U 22119S   23301.41010782  .00000130  00000-0  26263-4 0  9993,2 53902  53.2154 189.2852 0001563  95.7489 264.3681 15.08832692 62061,6917.903,95.438,540.849,538.686,0.0
53902.0,STARLINK-5021,PAYLOAD,2023-10-28 22:33:38,15.08845305,0.0001529,53.2148,186.9087,92.6311,267.4856,0.00024942,3.684e-05,0.0,0 STARLINK-5021,1 53902U 22119S   23301.94002559  .00003684  00000-0  24942-3 0  9992,2 53902  53.2148 186.9087 0001529  92.6311 267.4856 15.08845305 62142,6917.864,95.437,540.787,538.671,0.0
53902.0,STARLINK-5021,PAYLOAD,2023-10-29 01:44:24,15.08852064,0.0001609,53.2153,186.3131,91.77,268.3476,0.00055061,8.489e-05,0.0,0 STARLINK-5021,1 53902U 22119S   23302.07250425  .00008489  00000-0  55061-3 0  9998,2 53902  53.2153 186.3131 0001609  91.7700 268.3476 15.08852064 61746,6917.844,95.437,540.822,538.595,0.0
53902.0,STARLINK-5021,PAYLOAD,2023-10-29 09:41:20,15.08844183,0.0001615,53.2153,184.8281,87.211,272.9066,0.00046468,7.116e-05,0.0,0 STARLINK-5021,1 53902U 22119S   23302.40370818  .00007116  00000-0  46468-3 0  9991,2 53902  53.2153 184.8281 0001615  87.2110 272.9066 15.08844183 61791,6917.868,95.437,540.85,538.615,0.0
53902.0,STARLINK-5021,PAYLOAD,2023-10-29 22:24:25,15.08853945,0.0001435,53.2141,182.4491,88.0993,272.0163,0.0005053,7.766e-05,0.0,0 STARLINK-5021,1 53902U 22119S   23302.93362367  .00007766  00000-0  50530-3 0  9995,2 53902  53.2141 182.4491 0001435  88.0993 272.0163 15.08853945 62294,6917.838,95.437,540.695,538.71,0.0
53902.0,STARLINK-5021,PAYLOAD,2023-10-30 09:32:06,15.08847237,0.0001231,53.2156,180.3676,90.7868,269.3266,0.00017638,2.521e-05,0.0,0 STARLINK-5021,1 53902U 22119S   23303.39730243  .00002521  00000-0  17638-3 0  9994,2 53902  53.2156 180.3676 0001231  90.7868 269.3266 15.08847237 61948,6917.858,95.437,540.575,538.872,0.0
53902.0,STARLINK-5021,PAYLOAD,2023-10-30 19:04:26,15.08836435,0.0001702,53.2157,178.583,95.7809,264.3377,9.8351e-05,1.277e-05,0.0,0 STARLINK-5021,1 53902U 22119S   23303.79474705  .00001277  00000-0  98351-4 0  9995,2 53902  53.2157 178.5830 0001702  95.7809 264.3377 15.08836435 62007,6917.891,95.438,540.934,538.579,0.0
53902.0,STARLINK-5021,PAYLOAD,2023-10-30 22:15:12,15.08839152,0.0001719,53.2159,177.9879,95.9222,264.1966,0.0001161,1.56e-05,0.0,0 STARLINK-5021,1 53902U 22119S   23303.92722757  .00001560  00000-0  11610-3 0  9990,2 53902  53.2159 177.9879 0001719  95.9222 264.1966 15.08839152 62443,6917.883,95.438,540.937,538.559,0.0
53902.0,STARLINK-5021,PAYLOAD,2023-10-31 20:30:36,15.08841886,0.0001609,53.2153,173.825,97.9779,262.1396,0.00026519,3.935e-05,0.0,0 STARLINK-5021,1 53902U 22119S   23304.85459042  .00003935  00000-0  26519-3 0  9999,2 53902  53.2153 173.8250 0001609  97.9779 262.1396 15.08841886 62163,6917.875,95.437,540.853,538.627,0.0
53902.0,STARLINK-5021,PAYLOAD,2023-10-31 22:05:59,15.0884294,0.0001471,53.2149,173.5294,90.1647,269.9513,0.00030146,4.513e-05,0.0,0 STARLINK-5021,1 53902U 22119S   23304.92083056  .00004513  00000-0  30146-3 0  9999,2 53902  53.2149 173.5294 0001471  90.1647 269.9513 15.08842940 62594,6917.871,95.437,540.754,538.719,0.0
53902.0,STARLINK-5021,PAYLOAD,2023-11-01 20:21:23,15.08841896,0.0001504,53.2152,169.3651,92.0864,268.03,0.0002252,3.298e-05,0.0,0 STARLINK-5021,1 53902U 22119S   23305.84819193  .00003298  00000-0  22520-3 0  9996,2 53902  53.2152 169.3651 0001504  92.0864 268.0300 15.08841896 62310,6917.875,95.437,540.78,538.699,0.0
53902.0,STARLINK-5021,PAYLOAD,2023-11-01 21:56:46,15.08845412,0.0001469,53.215,169.0671,92.2709,267.8452,0.00027417,4.079e-05,0.0,0 STARLINK-5021,1 53902U 22119S   23305.91443049  .00004079  00000-0  27417-3 0  9995,2 53902  53.2150 169.0671 0001469  92.2709 267.8452 15.08845412 62747,6917.864,95.437,540.745,538.713,0.0
53902.0,STARLINK-5021,PAYLOAD,2023-11-02 13:50:38,15.08842739,0.0001407,53.2153,166.0967,93.8081,266.3072,0.00010473,1.379e-05,0.0,0 STARLINK-5021,1 53902U 22119S   23306.57683025  .00001379  00000-0  10473-3 0  9992,2 53902  53.2153 166.0967 0001407  93.8081 266.3072 15.08842739 62849,6917.872,95.437,540.71,538.764,0.0
53902.0,STARLINK-5021,PAYLOAD,2023-11-02 20:12:10,15.08836912,0.0001454,53.2157,164.9063,93.8278,266.288,1.1828e-05,-1e-06,0.0,0 STARLINK-5021,1 53902U 22119S   23306.84179335 -.00000100  00000-0  11828-4 0  9994,2 53902  53.2157 164.9063 0001454  93.8278 266.2880 15.08836912 62467,6917.89,95.438,540.761,538.749,0.0
53902.0,STARLINK-5021,PAYLOAD,2023-11-02 21:47:33,15.08839634,0.000141,53.2154,164.6093,93.8024,266.313,-3.3311e-05,-8.18e-06,0.0,0 STARLINK-5021,1 53902U 22119S   23306.90803171 -.00000818  00000-0 -33311-4 0  9991,2 53902  53.2154 164.6093 0001410  93.8024 266.3130 15.08839634 62895,6917.882,95.438,540.722,538.771,0.0
53902.0,STARLINK-5021,PAYLOAD,2023-11-03 13:41:25,15.0883658,0.0001242,53.2144,161.6338,90.4375,269.6759,-3.0084e-05,-7.67e-06,0.0,0 STARLINK-5021,1 53902U 22119S   23307.57043370 -.00000767  00000-0 -30084-4 0  9999,2 53902  53.2144 161.6338 0001242  90.4375 269.6759 15.08836580 62999,6917.891,95.438,540.615,538.897,0.0
53902.0,STARLINK-5021,PAYLOAD,2023-11-03 21:38:20,15.08844802,0.0001254,53.2155,160.1471,93.0321,267.0815,8.8447e-05,1.12e-05,0.0,0 STARLINK-5021,1 53902U 22119S   23307.90163095  .00001120  00000-0  88447-4 0  9991,2 53902  53.2155 160.1471 0001254  93.0321 267.0815 15.08844802 62627,6917.866,95.437,540.598,538.863,0.0
53902.0,STARLINK-5021,PAYLOAD,2023-11-04 13:32:13,15.08831007,0.0001216,53.2155,157.1728,88.0745,272.0386,0.00010369,1.362e-05,0.0,0 STARLINK-5021,1 53902U 22119S   23308.56404104  .00001362  00000-0  10369-3 0  9998,2 53902  53.2155 157.1728 0001216  88.0745 272.0386 15.08831007 63140,6917.908,95.438,540.614,538.932,0.0
53902.0,STARLINK-5021,PAYLOAD,2023-11-04 19:53:45,15.08839226,0.0001237,53.2147,155.9833,86.7929,273.3204,8.0241e-05,9.89e-06,0.0,0 STARLINK-5021,1 53902U 22119S   23308.82899498  .00000989  00000-0  80241-4 0  9992,2 53902  53.2147 155.9833 0001237  86.7929 273.3204 15.08839226 62767,6917.883,95.438,540.603,538.892,0.0
53902.0,STARLINK-5021,PAYLOAD,2023-11-04 21:29:08,15.08841605,0.000124,53.2147,155.6859,86.7837,273.3297,0.00011785,1.588e-05,0.0,0 STARLINK-5021,1 53902U 22119S   23308.89523403  .00001588  00000-0  11785-3 0  9991,2 53902  53.2147 155.6859 0001240  86.7837 273.3297 15.08841605 63198,6917.875,95.437,540.598,538.883,0.0
53902.0,STARLINK-5021,PAYLOAD,2023-11-05 13:22:59,15.0884846,0.0001249,53.2147,152.7123,85.5659,274.5476,0.00015362,2.158e-05,0.0,0 STARLINK-5021,1 53902U 22119S   23309.55763066  .00002158  00000-0  15362-3 0  9995,2 53902  53.2147 152.7123 0001249  85.5659 274.5476 15.08848460 63297,6917.855,95.437,540.584,538.855,0.0
53902.0,STARLINK-5021,PAYLOAD,2023-11-05 21:19:54,15.08864143,0.0001382,53.2146,151.2258,86.664,273.451,0.00056164,8.668e-05,0.0,0 STARLINK-5021,1 53902U 22119S   23309.88882561  .00008668  00000-0  56164-3 0  9990,2 53902  53.2146 151.2258 0001382  86.6640 273.4510 15.08864143 63348,6917.807,95.436,540.628,538.716,0.0
53902.0,STARLINK-5021,PAYLOAD,2023-11-06 06:52:13,15.08857108,0.0001454,53.2145,149.4413,88.224,271.8919,0.00038539,5.854e-05,0.0,0 STARLINK-5021,1 53902U 22119S   23310.28626500  .00005854  00000-0  38539-3 0  9995,2 53902  53.2145 149.4413 0001454  88.2240 271.8919 15.08857108 62980,6917.828,95.436,540.699,538.687,0.0
53902.0,STARLINK-5021,PAYLOAD,2023-11-06 13:13:45,15.08853335,0.0001511,53.2139,148.2529,89.1747,270.9418,0.00027294,4.06e-05,0.0,0 STARLINK-5021,1 53902U 22119S   23310.55122464  .00004060  00000-0  27294-3 0  9999,2 53902  53.2139 148.2529 0001511  89.1747 270.9418 15.08853335 63448,6917.84,95.437,540.75,538.659,0.0
53902.0,STARLINK-5021,PAYLOAD,2023-11-06 17:59:55,15.08850398,0.0001339,53.2139,147.3598,94.0682,266.0463,0.00017999,2.579e-05,0.0,0 STARLINK-5021,1 53902U 22119S   23310.74994401  .00002579  00000-0  17999-3 0  9992,2 53902  53.2139 147.3598 0001339  94.0682 266.0463 15.08850398 63054,6917.849,95.437,540.64,538.787,0.0
53902.0,STARLINK-5021,PAYLOAD,2023-11-07 06:43:00,15.08846145,0.000144,53.2143,144.9841,63.2159,296.898,5.9899e-05,6.66e-06,0.0,0 STARLINK-5021,1 53902U 22119S   23311.27986510  .00000666  00000-0  59899-4 0  9994,2 53902  53.2143 144.9841 0001440  63.2159 296.8980 15.08846145 63132,6917.862,95.437,540.723,538.73,0.0
